[{"OBJECT_NAME":"STARLINK-34233","OBJECT_ID":"2025-113C","EPOCH":"2026-03-09T11:42:02.147040","MEAN_MOTION":15.30204845,"ECCENTRICITY":0.00012078,"INCLINATION":53.158,"RA_OF_ASC_NODE":92.1112,"ARG_OF_PERICENTER":79.4935,"MEAN_ANOMALY":280.6202,"EPHEMERIS_TYPE":0,"CLASSIFICATION_TYPE":"U","NORAD_CAT_ID":64172,"ELEMENT_SET_NO":999,"REV_AT_EPOCH":4503,"BSTAR":0.00049127494,"MEAN_MOTION_DOT":0.00014221,"MEAN_MOTION_DDOT":0},{"OBJECT_NAME":"FENGYUN 1C DEB","OBJECT_ID":"1999-025AMU","EPOCH":"2026-03-09T13:46:16.276800","MEAN_MOTION":15.41895871,"ECCENTRICITY":0.0043781,"INCLINATION":98.2926,"RA_OF_ASC_NODE":203.1751,"ARG_OF_PERICENTER":231.7233,"MEAN_ANOMALY":128.007,"EPHEMERIS_TYPE":0,"CLASSIFICATION_TYPE":"U","NORAD_CAT_ID":30613,"ELEMENT_SET_NO":999,"REV_AT_EPOCH":717,"BSTAR":0.0052699,"MEAN_MOTION_DOT":0.00238104,"MEAN_MOTION_DDOT":0}]
